{
    "links": {
        "self": "http://www.neowsapp.com/rest/v1/neo/3719733?api_key=iIulBulltgU6a56xZRHN4H3l9WmuAYTsLGpBGhQ2"
    },
    "id": "3719733",
    "neo_reference_id": "3719733",
    "name": "(2015 KE57)",
    "designation": "2015 KE57",
    "nasa_jpl_url": "http://ssd.jpl.nasa.gov/sbdb.cgi?sstr=3719733",
    "absolute_magnitude_h": 22.9,
    "estimated_diameter": {
        "kilometers": {
            "estimated_diameter_min": 0.0699125232,
            "estimated_diameter_max": 0.1563291544
        },
        "meters": {
            "estimated_diameter_min": 69.9125232246,
            "estimated_diameter_max": 156.3291544087
        },
        "miles": {
            "estimated_diameter_min": 0.0434416145,
            "estimated_diameter_max": 0.097138403
        },
        "feet": {
            "estimated_diameter_min": 229.3718026961,
            "estimated_diameter_max": 512.8909429502
        }
    },
    "is_potentially_hazardous_asteroid": false,
    "close_approach_data": [
        {
            "close_approach_date": "2013-06-06",
            "close_approach_date_full": "2013-Jun-06 23:37",
            "epoch_date_close_approach": 1370561820000,
            "relative_velocity": {
                "kilometers_per_second": "10.2339569335",
                "kilometers_per_hour": "36842.2449604693",
                "miles_per_hour": "22892.338264465"
            },
            "miss_distance": {
                "astronomical": "0.2434586241",
                "lunar": "94.7054047749",
                "kilometers": "36420891.598490667",
                "miles": "22630892.6308665246"
            },
            "orbiting_body": "Earth"
        },
        {
            "close_approach_date": "2015-06-04",
            "close_approach_date_full": "2015-Jun-04 15:31",
            "epoch_date_close_approach": 1433431860000,
            "relative_velocity": {
                "kilometers_per_second": "9.2242589842",
                "kilometers_per_hour": "33207.3323430282",
                "miles_per_hour": "20633.7449217"
            },
            "miss_distance": {
                "astronomical": "0.1956820599",
                "lunar": "76.1203213011",
                "kilometers": "29273619.358252413",
                "miles": "18189783.5977447794"
            },
            "orbiting_body": "Earth"
        }
    ],
    "orbital_data": {
        "orbit_id": "6",
        "orbit_determination_date": "2017-04-06 08:33:35",
        "first_observation_date": "2015-05-20",
        "last_observation_date": "2015-05-25",
        "data_arc_in_days": 5,
        "observations_used": 40,
        "orbit_uncertainty": "8",
        "minimum_orbit_intersection": ".194502",
        "jupiter_tisserand_invariant": "4.270",
        "epoch_osculation": "2457165.5",
        "eccentricity": ".2568953181008883",
        "semi_major_axis": "1.602250529074465",
        "inclination": "17.52337245499443",
        "ascending_node_longitude": "65.7900273723406",
        "orbital_period": "740.7882110934665",
        "perihelion_distance": "1.190639869730564",
        "perihelion_argument": "206.4959694995995",
        "aphelion_distance": "2.013861188418367",
        "perihelion_time": "2457201.294690931221",
        "mean_anomaly": "342.6048949723179",
        "mean_motion": ".4859688566973944",
        "equinox": "J2000",
        "orbit_class": {
            "orbit_class_type": "AMO",
            "orbit_class_description": "Near-Earth asteroid orbits similar to that of 1221 Amor",
            "orbit_class_range": "1.017 AU < q (perihelion) < 1.3 AU"
        }
    },
    "is_sentry_object": false
}